SINOD-D 1               
1 40968U 15058E   26068.70671034  .00006216  00000+0  50695-3 0  9998
2 40968  64.7759 210.2419 0117280  93.1753 268.2787 14.95054547101784
LEMUR-2-HUBBLE-5        
1 64840U 25135BT  26068.89743513  .00002057  00000+0  19938-3 0  9996
2 64840  97.7587 184.5753 0004486 317.3017  42.7854 14.93781203 39082
